[{"OBJECT_NAME":"ONEWEB-0380","OBJECT_ID":"2021-090AD","EPOCH":"2025-12-28T05:14:18.429504","MEAN_MOTION":13.19725625,"ECCENTRICITY":0.0001831,"INCLINATION":87.9211,"RA_OF_ASC_NODE":338.9931,"ARG_OF_PERICENTER":91.4265,"MEAN_ANOMALY":268.7077,"EPHEMERIS_TYPE":0,"CLASSIFICATION_TYPE":"U","NORAD_CAT_ID":49306,"ELEMENT_SET_NO":999,"REV_AT_EPOCH":20387,"BSTAR":8.0074976e-5,"MEAN_MOTION_DOT":4.5e-7,"MEAN_MOTION_DDOT":0},{"OBJECT_NAME":"ONEWEB-0381","OBJECT_ID":"2021-090AE","EPOCH":"2025-12-28T02:23:16.513152","MEAN_MOTION":13.20772189,"ECCENTRICITY":0.0001957,"INCLINATION":87.922,"RA_OF_ASC_NODE":308.5613,"ARG_OF_PERICENTER":86.341,"MEAN_ANOMALY":273.7947,"EPHEMERIS_TYPE":0,"CLASSIFICATION_TYPE":"U","NORAD_CAT_ID":49307,"ELEMENT_SET_NO":999,"REV_AT_EPOCH":20724,"BSTAR":4.5424298e-5,"MEAN_MOTION_DOT":3.1e-7,"MEAN_MOTION_DDOT":0},{"OBJECT_NAME":"ONEWEB-0382","OBJECT_ID":"2021-090AF","EPOCH":"2025-12-28T05:43:14.374848","MEAN_MOTION":13.20769411,"ECCENTRICITY":0.0002134,"INCLINATION":87.9221,"RA_OF_ASC_NODE":308.5299,"ARG_OF_PERICENTER":85.9671,"MEAN_ANOMALY":274.1707,"EPHEMERIS_TYPE":0,"CLASSIFICATION_TYPE":"U","NORAD_CAT_ID":49308,"ELEMENT_SET_NO":999,"REV_AT_EPOCH":20725,"BSTAR":-0.00025562462,"MEAN_MOTION_DOT":-9.1e-7,"MEAN_MOTION_DDOT":0},{"OBJECT_NAME":"ONEWEB-0383","OBJECT_ID":"2021-090AG","EPOCH":"2025-12-28T07:11:01.162464","MEAN_MOTION":13.14501394,"ECCENTRICITY":0.00019994,"INCLINATION":87.9011,"RA_OF_ASC_NODE":323.739,"ARG_OF_PERICENTER":81.9065,"MEAN_ANOMALY":278.2292,"EPHEMERIS_TYPE":0,"CLASSIFICATION_TYPE":"U","NORAD_CAT_ID":49309,"ELEMENT_SET_NO":999,"REV_AT_EPOCH":20514,"BSTAR":-0.0001416718,"MEAN_MOTION_DOT":-4.0e-7,"MEAN_MOTION_DDOT":0},{"OBJECT_NAME":"ONEWEB-0384","OBJECT_ID":"2021-090AH","EPOCH":"2025-12-28T07:22:23.323296","MEAN_MOTION":13.20800328,"ECCENTRICITY":0.00023389,"INCLINATION":87.9231,"RA_OF_ASC_NODE":308.5535,"ARG_OF_PERICENTER":83.2091,"MEAN_ANOMALY":276.9308,"EPHEMERIS_TYPE":0,"CLASSIFICATION_TYPE":"U","NORAD_CAT_ID":49310,"ELEMENT_SET_NO":999,"REV_AT_EPOCH":20727,"BSTAR":0.00024143392,"MEAN_MOTION_DOT":1.11e-6,"MEAN_MOTION_DDOT":0},{"OBJECT_NAME":"ONEWEB-0385","OBJECT_ID":"2021-090AJ","EPOCH":"2025-12-28T07:20:59.870400","MEAN_MOTION":13.20771354,"ECCENTRICITY":0.00019551,"INCLINATION":87.9221,"RA_OF_ASC_NODE":308.5208,"ARG_OF_PERICENTER":82.579,"MEAN_ANOMALY":277.5565,"EPHEMERIS_TYPE":0,"CLASSIFICATION_TYPE":"U","NORAD_CAT_ID":49311,"ELEMENT_SET_NO":999,"REV_AT_EPOCH":20724,"BSTAR":0.00016130289,"MEAN_MOTION_DOT":7.9e-7,"MEAN_MOTION_DDOT":0},{"OBJECT_NAME":"ONEWEB-0386","OBJECT_ID":"2021-090AK","EPOCH":"2025-12-27T19:02:22.334784","MEAN_MOTION":13.20771797,"ECCENTRICITY":0.00020848,"INCLINATION":87.9222,"RA_OF_ASC_NODE":308.6073,"ARG_OF_PERICENTER":82.0639,"MEAN_ANOMALY":278.0731,"EPHEMERIS_TYPE":0,"CLASSIFICATION_TYPE":"U","NORAD_CAT_ID":49312,"ELEMENT_SET_NO":999,"REV_AT_EPOCH":20719,"BSTAR":5.3608468e-5,"MEAN_MOTION_DOT":3.5e-7,"MEAN_MOTION_DDOT":0},{"OBJECT_NAME":"ONEWEB-0387","OBJECT_ID":"2021-090AL","EPOCH":"2025-12-28T07:23:16.340064","MEAN_MOTION":13.20771776,"ECCENTRICITY":0.00017958,"INCLINATION":87.9211,"RA_OF_ASC_NODE":308.5491,"ARG_OF_PERICENTER":89.0877,"MEAN_ANOMALY":271.0463,"EPHEMERIS_TYPE":0,"CLASSIFICATION_TYPE":"U","NORAD_CAT_ID":49313,"ELEMENT_SET_NO":999,"REV_AT_EPOCH":20726,"BSTAR":0.00013230573,"MEAN_MOTION_DOT":6.7e-7,"MEAN_MOTION_DDOT":0},{"OBJECT_NAME":"ONEWEB-0388","OBJECT_ID":"2021-090AM","EPOCH":"2025-12-28T05:07:29.277984","MEAN_MOTION":13.19724855,"ECCENTRICITY":0.00019314,"INCLINATION":87.9206,"RA_OF_ASC_NODE":338.9938,"ARG_OF_PERICENTER":86.1033,"MEAN_ANOMALY":274.0321,"EPHEMERIS_TYPE":0,"CLASSIFICATION_TYPE":"U","NORAD_CAT_ID":49314,"ELEMENT_SET_NO":999,"REV_AT_EPOCH":20386,"BSTAR":-4.1650196e-5,"MEAN_MOTION_DOT":-4.0e-8,"MEAN_MOTION_DDOT":0},{"OBJECT_NAME":"ONEWEB-0389","OBJECT_ID":"2021-132A","EPOCH":"2025-12-28T02:44:55.261536","MEAN_MOTION":13.17649813,"ECCENTRICITY":0.00020462,"INCLINATION":87.9098,"RA_OF_ASC_NODE":39.8831,"ARG_OF_PERICENTER":105.7815,"MEAN_ANOMALY":254.3542,"EPHEMERIS_TYPE":0,"CLASSIFICATION_TYPE":"U","NORAD_CAT_ID":50469,"ELEMENT_SET_NO":999,"REV_AT_EPOCH":19555,"BSTAR":2.8640835e-5,"MEAN_MOTION_DOT":2.4e-7,"MEAN_MOTION_DDOT":0},{"OBJECT_NAME":"ONEWEB-0390","OBJECT_ID":"2021-132B","EPOCH":"2025-12-28T04:36:40.769856","MEAN_MOTION":13.17651336,"ECCENTRICITY":0.0001514,"INCLINATION":87.9095,"RA_OF_ASC_NODE":39.8692,"ARG_OF_PERICENTER":100.9833,"MEAN_ANOMALY":259.1469,"EPHEMERIS_TYPE":0,"CLASSIFICATION_TYPE":"U","NORAD_CAT_ID":50470,"ELEMENT_SET_NO":999,"REV_AT_EPOCH":19556,"BSTAR":3.5633448e-5,"MEAN_MOTION_DOT":2.7e-7,"MEAN_MOTION_DDOT":0},{"OBJECT_NAME":"ONEWEB-0391","OBJECT_ID":"2021-132C","EPOCH":"2025-12-28T04:39:08.462880","MEAN_MOTION":13.17649327,"ECCENTRICITY":0.00020791,"INCLINATION":87.9093,"RA_OF_ASC_NODE":39.8783,"ARG_OF_PERICENTER":122.2126,"MEAN_ANOMALY":237.9207,"EPHEMERIS_TYPE":0,"CLASSIFICATION_TYPE":"U","NORAD_CAT_ID":50471,"ELEMENT_SET_NO":999,"REV_AT_EPOCH":19556,"BSTAR":5.8357801e-5,"MEAN_MOTION_DOT":3.6e-7,"MEAN_MOTION_DDOT":0},{"OBJECT_NAME":"ONEWEB-0392","OBJECT_ID":"2021-132D","EPOCH":"2025-12-28T03:33:30.616128","MEAN_MOTION":13.17650176,"ECCENTRICITY":0.00019889,"INCLINATION":87.9102,"RA_OF_ASC_NODE":39.8405,"ARG_OF_PERICENTER":108.3409,"MEAN_ANOMALY":251.7939,"EPHEMERIS_TYPE":0,"CLASSIFICATION_TYPE":"U","NORAD_CAT_ID":50472,"ELEMENT_SET_NO":999,"REV_AT_EPOCH":19559,"BSTAR":3.2652693e-5,"MEAN_MOTION_DOT":2.6e-7,"MEAN_MOTION_DDOT":0},{"OBJECT_NAME":"ONEWEB-0393","OBJECT_ID":"2021-132E","EPOCH":"2025-12-28T04:44:10.674528","MEAN_MOTION":13.17650242,"ECCENTRICITY":0.00018972,"INCLINATION":87.9105,"RA_OF_ASC_NODE":39.8536,"ARG_OF_PERICENTER":102.897,"MEAN_ANOMALY":257.2373,"EPHEMERIS_TYPE":0,"CLASSIFICATION_TYPE":"U","NORAD_CAT_ID":50473,"ELEMENT_SET_NO":999,"REV_AT_EPOCH":19559,"BSTAR":8.4139536e-5,"MEAN_MOTION_DOT":4.6e-7,"MEAN_MOTION_DDOT":0},{"OBJECT_NAME":"ONEWEB-0394","OBJECT_ID":"2021-132F","EPOCH":"2025-12-28T07:11:45.582432","MEAN_MOTION":13.18687882,"ECCENTRICITY":0.00019044,"INCLINATION":87.9176,"RA_OF_ASC_NODE":9.3735,"ARG_OF_PERICENTER":94.0383,"MEAN_ANOMALY":266.0967,"EPHEMERIS_TYPE":0,"CLASSIFICATION_TYPE":"U","NORAD_CAT_ID":50474,"ELEMENT_SET_NO":999,"REV_AT_EPOCH":19907,"BSTAR":0.00028242011,"MEAN_MOTION_DOT":1.24e-6,"MEAN_MOTION_DDOT":0},{"OBJECT_NAME":"ONEWEB-0395","OBJECT_ID":"2021-132G","EPOCH":"2025-12-28T04:27:47.914272","MEAN_MOTION":13.11416954,"ECCENTRICITY":0.00016421,"INCLINATION":87.8842,"RA_OF_ASC_NODE":55.1254,"ARG_OF_PERICENTER":107.918,"MEAN_ANOMALY":252.2127,"EPHEMERIS_TYPE":0,"CLASSIFICATION_TYPE":"U","NORAD_CAT_ID":50475,"ELEMENT_SET_NO":999,"REV_AT_EPOCH":19330,"BSTAR":-0.0014351405,"MEAN_MOTION_DOT":-4.96e-6,"MEAN_MOTION_DDOT":0},{"OBJECT_NAME":"ONEWEB-0396","OBJECT_ID":"2021-132H","EPOCH":"2025-12-28T01:34:29.393472","MEAN_MOTION":13.1868625,"ECCENTRICITY":0.0001874,"INCLINATION":87.9174,"RA_OF_ASC_NODE":9.4322,"ARG_OF_PERICENTER":93.5563,"MEAN_ANOMALY":266.5784,"EPHEMERIS_TYPE":0,"CLASSIFICATION_TYPE":"U","NORAD_CAT_ID":50476,"ELEMENT_SET_NO":999,"REV_AT_EPOCH":19908,"BSTAR":-7.5776428e-5,"MEAN_MOTION_DOT":-1.7e-7,"MEAN_MOTION_DDOT":0},{"OBJECT_NAME":"ONEWEB-0397","OBJECT_ID":"2021-132J","EPOCH":"2025-12-28T01:55:50.197440","MEAN_MOTION":13.18687515,"ECCENTRICITY":0.00020031,"INCLINATION":87.9175,"RA_OF_ASC_NODE":9.4297,"ARG_OF_PERICENTER":90.8347,"MEAN_ANOMALY":269.3014,"EPHEMERIS_TYPE":0,"CLASSIFICATION_TYPE":"U","NORAD_CAT_ID":50477,"ELEMENT_SET_NO":999,"REV_AT_EPOCH":19906,"BSTAR":0.00020383929,"MEAN_MOTION_DOT":9.3e-7,"MEAN_MOTION_DDOT":0},{"OBJECT_NAME":"ONEWEB-0398","OBJECT_ID":"2021-132K","EPOCH":"2025-12-28T05:31:18.534432","MEAN_MOTION":13.11416209,"ECCENTRICITY":0.00014427,"INCLINATION":87.8847,"RA_OF_ASC_NODE":55.0906,"ARG_OF_PERICENTER":110.7153,"MEAN_ANOMALY":249.4129,"EPHEMERIS_TYPE":0,"CLASSIFICATION_TYPE":"U","NORAD_CAT_ID":50478,"ELEMENT_SET_NO":999,"REV_AT_EPOCH":19320,"BSTAR":0.00091709499,"MEAN_MOTION_DOT":3.38e-6,"MEAN_MOTION_DDOT":0},{"OBJECT_NAME":"ONEWEB-0399","OBJECT_ID":"2021-132L","EPOCH":"2025-12-28T03:21:54.204480","MEAN_MOTION":13.11415836,"ECCENTRICITY":0.00022252,"INCLINATION":87.8842,"RA_OF_ASC_NODE":55.1216,"ARG_OF_PERICENTER":108.6221,"MEAN_ANOMALY":251.5149,"EPHEMERIS_TYPE":0,"CLASSIFICATION_TYPE":"U","NORAD_CAT_ID":50479,"ELEMENT_SET_NO":999,"REV_AT_EPOCH":19318,"BSTAR":0.0015984484,"MEAN_MOTION_DOT":5.79e-6,"MEAN_MOTION_DDOT":0},{"OBJECT_NAME":"ONEWEB-0400","OBJECT_ID":"2021-132M","EPOCH":"2025-12-28T06:52:45.399648","MEAN_MOTION":13.18687221,"ECCENTRICITY":0.00015924,"INCLINATION":87.9173,"RA_OF_ASC_NODE":9.3782,"ARG_OF_PERICENTER":92.1897,"MEAN_ANOMALY":267.9417,"EPHEMERIS_TYPE":0,"CLASSIFICATION_TYPE":"U","NORAD_CAT_ID":50480,"ELEMENT_SET_NO":999,"REV_AT_EPOCH":19908,"BSTAR":0.00026558824,"MEAN_MOTION_DOT":1.18e-6,"MEAN_MOTION_DDOT":0},{"OBJECT_NAME":"ONEWEB-0401","OBJECT_ID":"2021-132N","EPOCH":"2025-12-28T06:07:39.229824","MEAN_MOTION":13.18686503,"ECCENTRICITY":0.00019379,"INCLINATION":87.9172,"RA_OF_ASC_NODE":9.3809,"ARG_OF_PERICENTER":86.6466,"MEAN_ANOMALY":273.4888,"EPHEMERIS_TYPE":0,"CLASSIFICATION_TYPE":"U","NORAD_CAT_ID":50481,"ELEMENT_SET_NO":999,"REV_AT_EPOCH":19908,"BSTAR":6.7113647e-5,"MEAN_MOTION_DOT":3.9e-7,"MEAN_MOTION_DDOT":0},{"OBJECT_NAME":"ONEWEB-0402","OBJECT_ID":"2021-132P","EPOCH":"2025-12-28T07:04:39.190656","MEAN_MOTION":13.18686729,"ECCENTRICITY":0.00022484,"INCLINATION":87.9175,"RA_OF_ASC_NODE":9.3655,"ARG_OF_PERICENTER":79.4064,"MEAN_ANOMALY":280.7321,"EPHEMERIS_TYPE":0,"CLASSIFICATION_TYPE":"U","NORAD_CAT_ID":50482,"ELEMENT_SET_NO":999,"REV_AT_EPOCH":19911,"BSTAR":-8.1376301e-5,"MEAN_MOTION_DOT":-1.9e-7,"MEAN_MOTION_DDOT":0}]
